{
  "type": "FeatureCollection",
  "features": [
    {
      "type": "Feature",
      "properties": {
        "norad_id": 33733,
        "name": "FENGYUN 1C DEB",
        "group": "fengyun-1c-debris",
        "lat": -25.09075778797138,
        "lon": 76.58562629087062,
        "alt_km": 849.9088558087942,
        "timestamp": "2025-12-12T22:42:12.832936+00:00",
        "meta_object_name": "FENGYUN 1C DEB",
        "meta_object_id": "1999-025DHW",
        "meta_epoch": "2025-12-08T04:50:49.402752",
        "meta_mean_motion": 14.30867233,
        "meta_eccentricity": 0.00809024,
        "meta_inclination": 99.099,
        "meta_ra_of_asc_node": 67.3183,
        "meta_arg_of_pericenter": 183.3026,
        "meta_mean_anomaly": 206.7882,
        "meta_ephemeris_type": 0,
        "meta_classification_type": "U",
        "meta_norad_cat_id": 33733,
        "meta_element_set_no": 999,
        "meta_rev_at_epoch": 90383,
        "meta_bstar": 0.0048281586,
        "meta_mean_motion_dot": 0.00013108,
        "meta_mean_motion_ddot": 0,
        "tle_line1": "1 33733U 99025DHW 25342.20196068  .00013108  00000+0  48282-2 0  9990",
        "tle_line2": "2 33733  99.0990  67.3183 0080902 183.3026 206.7882 14.30867233903830"
      },
      "geometry": {
        "type": "Point",
        "coordinates": [
          76.58562629087062,
          -25.09075778797138
        ]
      }
    },
    {
      "type": "Feature",
      "properties": {
        "norad_id": 33737,
        "name": "FENGYUN 1C DEB",
        "group": "fengyun-1c-debris",
        "lat": 31.982797139377606,
        "lon": 6.09455154344928,
        "alt_km": 946.880240791982,
        "timestamp": "2025-12-12T22:42:12.832946+00:00",
        "meta_object_name": "FENGYUN 1C DEB",
        "meta_object_id": "1999-025DJA",
        "meta_epoch": "2025-12-11T11:53:58.319232",
        "meta_mean_motion": 14.02991611,
        "meta_eccentricity": 0.01283857,
        "meta_inclination": 98.3384,
        "meta_ra_of_asc_node": 179.5107,
        "meta_arg_of_pericenter": 286.6807,
        "meta_mean_anomaly": 101.5235,
        "meta_ephemeris_type": 0,
        "meta_classification_type": "U",
        "meta_norad_cat_id": 33737,
        "meta_element_set_no": 999,
        "meta_rev_at_epoch": 88723,
        "meta_bstar": 0.0019567135,
        "meta_mean_motion_dot": 3.227e-05,
        "meta_mean_motion_ddot": 0,
        "tle_line1": "1 33737U 99025DJA 25345.49581388  .00003227  00000+0  19567-2 0  9996",
        "tle_line2": "2 33737  98.3384 179.5107 0128385 286.6807 101.5235 14.02991611887233"
      },
      "geometry": {
        "type": "Point",
        "coordinates": [
          6.09455154344928,
          31.982797139377606
        ]
      }
    },
    {
      "type": "Feature",
      "properties": {
        "norad_id": 33738,
        "name": "FENGYUN 1C DEB",
        "group": "fengyun-1c-debris",
        "lat": 65.54753003215943,
        "lon": 26.215152631087147,
        "alt_km": 794.9645192256248,
        "timestamp": "2025-12-12T22:42:12.832956+00:00",
        "meta_object_name": "FENGYUN 1C DEB",
        "meta_object_id": "1999-025DJB",
        "meta_epoch": "2025-12-10T03:36:13.485312",
        "meta_mean_motion": 13.99524499,
        "meta_eccentricity": 0.0184812,
        "meta_inclination": 99.1523,
        "meta_ra_of_asc_node": 44.1839,
        "meta_arg_of_pericenter": 28.5592,
        "meta_mean_anomaly": 358.6711,
        "meta_ephemeris_type": 0,
        "meta_classification_type": "U",
        "meta_norad_cat_id": 33738,
        "meta_element_set_no": 999,
        "meta_rev_at_epoch": 89200,
        "meta_bstar": 0.00065897829,
        "meta_mean_motion_dot": 1.069e-05,
        "meta_mean_motion_ddot": 0,
        "tle_line1": "1 33738U 99025DJB 25344.15015608  .00001069  00000+0  65898-3 0  9997",
        "tle_line2": "2 33738  99.1523  44.1839 0184812  28.5592 358.6711 13.99524499892004"
      },
      "geometry": {
        "type": "Point",
        "coordinates": [
          26.215152631087147,
          65.54753003215943
        ]
      }
    },
    {
      "type": "Feature",
      "properties": {
        "norad_id": 33740,
        "name": "FENGYUN 1C DEB",
        "group": "fengyun-1c-debris",
        "lat": 65.03032085541176,
        "lon": -160.98153959607197,
        "alt_km": 843.6381150271836,
        "timestamp": "2025-12-12T22:42:12.832966+00:00",
        "meta_object_name": "FENGYUN 1C DEB",
        "meta_object_id": "1999-025DJD",
        "meta_epoch": "2025-12-12T06:51:56.860992",
        "meta_mean_motion": 14.12322198,
        "meta_eccentricity": 0.00020299,
        "meta_inclination": 98.6874,
        "meta_ra_of_asc_node": 359.2112,
        "meta_arg_of_pericenter": 129.9334,
        "meta_mean_anomaly": 230.2017,
        "meta_ephemeris_type": 0,
        "meta_classification_type": "U",
        "meta_norad_cat_id": 33740,
        "meta_element_set_no": 999,
        "meta_rev_at_epoch": 90140,
        "meta_bstar": 0.00020134414,
        "meta_mean_motion_dot": 3.28e-06,
        "meta_mean_motion_ddot": 0,
        "tle_line1": "1 33740U 99025DJD 25346.28607478  .00000328  00000+0  20134-3 0  9999",
        "tle_line2": "2 33740  98.6874 359.2112 0002029 129.9334 230.2017 14.12322198901400"
      },
      "geometry": {
        "type": "Point",
        "coordinates": [
          -160.98153959607197,
          65.03032085541176
        ]
      }
    },
    {
      "type": "Feature",
      "properties": {
        "norad_id": 33741,
        "name": "FENGYUN 1C DEB",
        "group": "fengyun-1c-debris",
        "lat": 27.779214100935604,
        "lon": 85.08741947317318,
        "alt_km": 817.394441757986,
        "timestamp": "2025-12-12T22:42:12.832977+00:00",
        "meta_object_name": "FENGYUN 1C DEB",
        "meta_object_id": "1999-025DJE",
        "meta_epoch": "2025-12-11T17:02:33.884160",
        "meta_mean_motion": 14.09800976,
        "meta_eccentricity": 0.01275257,
        "meta_inclination": 98.5648,
        "meta_ra_of_asc_node": 259.3576,
        "meta_arg_of_pericenter": 91.2636,
        "meta_mean_anomaly": 270.3148,
        "meta_ephemeris_type": 0,
        "meta_classification_type": "U",
        "meta_norad_cat_id": 33741,
        "meta_element_set_no": 999,
        "meta_rev_at_epoch": 56848,
        "meta_bstar": 0.0031597361,
        "meta_mean_motion_dot": 5.952e-05,
        "meta_mean_motion_ddot": 0,
        "tle_line1": "1 33741U 99025DJE 25345.71011440  .00005952  00000+0  31597-2 0  9997",
        "tle_line2": "2 33741  98.5648 259.3576 0127525  91.2636 270.3148 14.09800976568486"
      },
      "geometry": {
        "type": "Point",
        "coordinates": [
          85.08741947317318,
          27.779214100935604
        ]
      }
    },
    {
      "type": "Feature",
      "properties": {
        "norad_id": 33745,
        "name": "FENGYUN 1C DEB",
        "group": "fengyun-1c-debris",
        "lat": 20.155293626852554,
        "lon": -152.50600571408012,
        "alt_km": 828.050233898668,
        "timestamp": "2025-12-12T22:42:12.832987+00:00",
        "meta_object_name": "FENGYUN 1C DEB",
        "meta_object_id": "1999-025DJJ",
        "meta_epoch": "2025-12-09T12:54:35.581248",
        "meta_mean_motion": 14.22286162,
        "meta_eccentricity": 0.0053634,
        "meta_inclination": 99.1144,
        "meta_ra_of_asc_node": 20.5943,
        "meta_arg_of_pericenter": 275.368,
        "meta_mean_anomaly": 84.1379,
        "meta_ephemeris_type": 0,
        "meta_classification_type": "U",
        "meta_norad_cat_id": 33745,
        "meta_element_set_no": 999,
        "meta_rev_at_epoch": 65956,
        "meta_bstar": 0.0019638,
        "meta_mean_motion_dot": 4.382e-05,
        "meta_mean_motion_ddot": 0,
        "tle_line1": "1 33745U 99025DJJ 25343.53791182  .00004382  00000+0  19638-2 0  9995",
        "tle_line2": "2 33745  99.1144  20.5943 0053634 275.3680  84.1379 14.22286162659564"
      },
      "geometry": {
        "type": "Point",
        "coordinates": [
          -152.50600571408012,
          20.155293626852554
        ]
      }
    },
    {
      "type": "Feature",
      "properties": {
        "norad_id": 33747,
        "name": "FENGYUN 1C DEB",
        "group": "fengyun-1c-debris",
        "lat": 69.04167415855171,
        "lon": 56.8990894147809,
        "alt_km": 880.2164616871887,
        "timestamp": "2025-12-12T22:42:12.833011+00:00",
        "meta_object_name": "FENGYUN 1C DEB",
        "meta_object_id": "1999-025DJL",
        "meta_epoch": "2025-12-07T00:03:01.560960",
        "meta_mean_motion": 14.17338054,
        "meta_eccentricity": 0.00899301,
        "meta_inclination": 99.098,
        "meta_ra_of_asc_node": 75.547,
        "meta_arg_of_pericenter": 232.9564,
        "meta_mean_anomaly": 126.336,
        "meta_ephemeris_type": 0,
        "meta_classification_type": "U",
        "meta_norad_cat_id": 33747,
        "meta_element_set_no": 999,
        "meta_rev_at_epoch": 90051,
        "meta_bstar": 0.0039970984,
        "meta_mean_motion_dot": 8.373e-05,
        "meta_mean_motion_ddot": 0,
        "tle_line1": "1 33747U 99025DJL 25341.00210140  .00008373  00000+0  39971-2 0  9993",
        "tle_line2": "2 33747  99.0980  75.5470 0089930 232.9564 126.3360 14.17338054900511"
      },
      "geometry": {
        "type": "Point",
        "coordinates": [
          56.8990894147809,
          69.04167415855171
        ]
      }
    }
  ]
}